     3.02           N: GNSS NAV DATA    R: GLONASS          RINEX VERSION / TYPE
GR10 V3.11          CNES                20160104 235943 UTC PGM / RUN BY / DATE
GLUT -3.9115548134D-08 0.000000000D+00      0    0          TIME SYSTEM CORR
    17    17  1851     3                                    LEAP SECONDS
                                                            END OF HEADER
R01 2016 01 04 23 45 00-1.470930874348D-04 0.000000000000D+00 1.710000000000D+05
    -6.624465332031D+03 4.585275650024D-01 1.862645149231D-09 0.000000000000D+00
    -1.499588818359D+04-2.637048721313D+00-0.000000000000D+00 1.000000000000D+00
     1.954258593750D+04-1.865829467773D+00-9.313225746155D-10 0.000000000000D+00
R02 2016 01 04 13 15 00 1.698518171906D-04 1.818989403546D-12 1.332000000000D+05
     1.133913818359D+04 5.805330276489D-01-9.313225746155D-10 0.000000000000D+00
     1.984012695313D+03 3.058418273926D+00 9.313225746155D-10-4.000000000000D+00
     2.278755175781D+04-5.590944290161D-01-1.862645149231D-09 0.000000000000D+00
R03 2016 01 04 17 45 00 5.912687629461D-05 0.000000000000D+00 1.494000000000D+05
     2.305312988281D+04-9.060821533203D-01 9.313225746155D-10 0.000000000000D+00
     8.345520996094D+03-3.441514968872D-01 9.313225746155D-10 5.000000000000D+00
    -6.959909179688D+03-3.401899337769D+00 1.862645149231D-09 0.000000000000D+00
R04 2016 01 04 20 15 00 1.519098877907D-04 9.094947017729D-13 1.584000000000D+05
     1.793338818359D+04-2.278842926025D+00 9.313225746155D-10 0.000000000000D+00
     9.919614257813D+02 9.839067459106D-01-0.000000000000D+00 6.000000000000D+00
    -1.810141845703D+04-2.203660011292D+00 2.793967723846D-09 0.000000000000D+00
R05 2016 01 04 22 15 00 2.819113433361D-06-0.000000000000D+00 1.656000000000D+05
     1.319542773438D+04-1.701158523560D+00-0.000000000000D+00 0.000000000000D+00
    -6.627231445313D+02 2.452500343323D+00-0.000000000000D+00 1.000000000000D+00
    -2.183651904297D+04-1.102441787720D+00 2.793967723846D-09 0.000000000000D+00
R06 2016 01 04 23 45 00 8.133426308632D-05 0.000000000000D+00 1.710000000000D+05
     1.191092041016D+04-6.289138793945D-01-0.000000000000D+00 0.000000000000D+00
    -5.331303710938D+03 2.930687904358D+00-0.000000000000D+00-4.000000000000D+00
    -2.193133300781D+04-1.057553291321D+00 2.793967723846D-09 0.000000000000D+00
R07 2016 01 04 23 45 00-5.140900611877D-06-0.000000000000D+00 1.710000000000D+05
     9.785312011719D+03-4.464349746704D-01 9.313225746155D-10 0.000000000000D+00
    -2.075276611328D+04 1.463885307312D+00-9.313225746155D-10 5.000000000000D+00
    -1.109744433594D+04-3.126237869263D+00 1.862645149231D-09 0.000000000000D+00
R08 2016 01 04 23 45 00-2.703815698624D-05 0.000000000000D+00 1.710000000000D+05
     2.248726562500D+03 1.859092712402D-02 1.862645149231D-09 0.000000000000D+00
    -2.469873242188D+04-8.342628479004D-01-9.313225746155D-10 6.000000000000D+00
     6.039416015625D+03-3.441714286804D+00 0.000000000000D+00 0.000000000000D+00
R09 2016 01 04 23 45 00 2.342741936445D-05 9.094947017729D-13 1.710600000000D+05
     1.836962744141D+04 1.785116195679D+00 9.313225746155D-10 0.000000000000D+00
     6.056641113281D+03 1.429479598999D+00-1.862645149231D-09-2.000000000000D+00
     1.667348242188D+04-2.473576545715D+00-0.000000000000D+00 0.000000000000D+00
R10 2016 01 04 23 45 00 4.498288035393D-06 0.000000000000D+00 1.710000000000D+05
     6.965156250000D+03 2.350970268250D+00 1.862645149231D-09 0.000000000000D+00
    -7.835858886719D+03 2.156673431396D+00-1.862645149231D-09-7.000000000000D+00
     2.323995117188D+04 1.596641540527D-02-9.313225746155D-10 0.000000000000D+00
R11 2016 01 04 23 45 00 2.133939415216D-05 0.000000000000D+00 1.710000000000D+05
    -8.390697265625D+03 1.579779624939D+00 1.862645149231D-09 0.000000000000D+00
    -1.760840380859D+04 1.607424736023D+00-0.000000000000D+00 0.000000000000D+00
     1.639086865234D+04 2.543748855591D+00-9.313225746155D-10 0.000000000000D+00
R12 2016 01 04 09 45 00 3.134831786156D-05 9.094947017729D-13 1.206000000000D+05
     1.057653515625D+04 9.539871215820D-01 2.793967723846D-09 0.000000000000D+00
    -2.409957519531D+03 3.011582374573D+00-0.000000000000D+00-1.000000000000D+00
    -2.311094873047D+04 1.083211898804D-01 9.313225746155D-10 0.000000000000D+00
R13 2016 01 04 15 45 00 1.179799437523D-05-0.000000000000D+00 1.422000000000D+05
     1.590150097656D+04-2.577050209045D+00-0.000000000000D+00 0.000000000000D+00
     4.270768066406D+03 7.118530273438D-01 1.862645149231D-09-2.000000000000D+00
     1.947031103516D+04 1.947153091431D+00-9.313225746155D-10 0.000000000000D+00
R14 2016 01 04 17 45 00 2.644602209330D-04 4.547473508865D-12 1.494000000000D+05
     1.201324267578D+04-2.131376266479D+00 9.313225746155D-10 0.000000000000D+00
     1.894624023438D+03 2.219147682190D+00 1.862645149231D-09-7.000000000000D+00
     2.241865185547D+04 9.476108551025D-01-9.313225746155D-10 0.000000000000D+00
R15 2016 01 04 19 15 00 6.089266389608D-05 0.000000000000D+00 1.548000000000D+05
     1.069832226563D+04-1.106782913208D+00 1.862645149231D-09 0.000000000000D+00
     1.150789062500D+03 2.969548225403D+00 9.313225746155D-10 0.000000000000D+00
     2.313392871094D+04 3.738508224487D-01-9.313225746155D-10 0.000000000000D+00
R16 2016 01 04 21 15 00 2.740882337093D-05 0.000000000000D+00 1.620000000000D+05
     1.107670410156D+04 5.869112014771D-01 2.793967723846D-09 0.000000000000D+00
     8.714155273438D+02 3.093714714050D+00 0.000000000000D+00-1.000000000000D+00
     2.292775488281D+04-4.080657958984D-01-9.313225746155D-10 0.000000000000D+00
R17 2015 10 16 20 45 00 4.912633448839D-05 1.818989403546D-12 5.058000000000D+05
     1.212709960938D+04-1.101675987244D+00-9.313225746155D-10 0.000000000000D+00
    -3.265004394531D+03 2.835473060608D+00-9.313225746155D-10-6.000000000000D+00
    -2.221907031250D+04-1.011949539185D+00 1.862645149231D-09 0.000000000000D+00
R18 2016 01 04 17 45 00 8.330680429935D-05 9.094947017729D-13 1.494000000000D+05
     1.093376904297D+04 9.585123062134D-01-0.000000000000D+00 0.000000000000D+00
    -8.867929687500D+02 3.007911682129D+00-0.000000000000D+00-3.000000000000D+00
    -2.301007177734D+04 3.449344635010D-01 1.862645149231D-09 0.000000000000D+00
R19 2016 01 04 23 45 00-1.449100673199D-04-0.000000000000D+00 1.710000000000D+05
     1.505720410156D+04-2.648861885071D+00 1.862645149231D-09 0.000000000000D+00
     5.056711425781D+03 6.884984970093D-01-1.862645149231D-09 3.000000000000D+00
     1.996350537109D+04 1.823136329651D+00-9.313225746155D-10 0.000000000000D+00
R20 2016 01 04 23 45 00-2.129385247827D-04-1.818989403546D-12 1.710000000000D+05
     2.443648291016D+04-7.791757583618D-01 1.862645149231D-09 0.000000000000D+00
    -4.697248535156D+03 2.644538879395D-02-1.862645149231D-09 2.000000000000D+00
     5.502798339844D+03 3.492081642151D+00 9.313225746155D-10 0.000000000000D+00
R21 2016 01 04 23 45 00 4.537310451269D-05 1.818989403546D-12 1.710000000000D+05
     1.981336083984D+04 1.391393661499D+00 9.313225746155D-10 0.000000000000D+00
    -1.169040869141D+04-6.183099746704D-01-1.862645149231D-09 4.000000000000D+00
    -1.104959375000D+04 3.145277023315D+00 1.862645149231D-09 0.000000000000D+00
R22 2016 01 04 23 45 00 1.872712746263D-04 0.000000000000D+00 1.712700000000D+05
     3.586075683594D+03 2.892632484436D+00-0.000000000000D+00 0.000000000000D+00
    -1.192243017578D+04-9.712514877319D-01-0.000000000000D+00-3.000000000000D+00
    -2.223580273438D+04 9.989175796509D-01 1.862645149231D-09 0.000000000000D+00
R23 2016 01 04 12 15 00-6.660632789135D-05-3.637978807092D-12 1.296000000000D+05
     1.795683251953D+04-2.304390907288D+00 9.313225746155D-10 0.000000000000D+00
     9.663159179688D+02 9.204120635986D-01-1.862645149231D-09 3.000000000000D+00
    -1.809331152344D+04-2.238669395447D+00 0.000000000000D+00 0.000000000000D+00
R24 2016 01 04 14 15 00-1.324946060777D-04-0.000000000000D+00 1.368000000000D+05
     1.263528906250D+04-1.799657821655D+00 0.000000000000D+00 0.000000000000D+00
    -1.018569335938D+02 2.442413330078D+00-9.313225746155D-10 2.000000000000D+00
    -2.217975146484D+04-1.036959648132D+00 1.862645149231D-09 0.000000000000D+00
R22 2016 01 05 00 15 00 1.872722059488D-04 0.000000000000D+00 1.728000000000D+05
     8.378768554688D+03 2.393875122070D+00 0.000000000000D+00 0.000000000000D+00
    -1.393758056641D+04-1.234335899353D+00-0.000000000000D+00-3.000000000000D+00
    -1.959858105469D+04 1.912550926208D+00 2.793967723846D-09 0.000000000000D+00
R08 2016 01 05 00 15 00-2.703815698624D-05 0.000000000000D+00 1.728000000000D+05
     2.084931152344D+03-1.614847183228D-01 1.862645149231D-09 0.000000000000D+00
    -2.542806982422D+04 3.611087799072D-02-9.313225746155D-10 6.000000000000D+00
    -3.088632812500D+02-3.566210746765D+00 9.313225746155D-10 0.000000000000D+00
R07 2016 01 05 00 15 00-5.141831934452D-06-0.000000000000D+00 1.728000000000D+05
     9.099826171875D+03-2.785186767578D-01 0.000000000000D+00 0.000000000000D+00
    -1.742072998047D+04 2.212246894836D+00-9.313225746155D-10 5.000000000000D+00
    -1.622160498047D+04-2.530178070068D+00 2.793967723846D-09 0.000000000000D+00
R10 2016 01 05 00 15 00 4.499219357967D-06 0.000000000000D+00 1.728000000000D+05
     1.141918164063D+04 2.553162574768D+00 1.862645149231D-09 0.000000000000D+00
    -4.330119140625D+03 1.710016250610D+00-1.862645149231D-09-7.000000000000D+00
     2.236837207031D+04-9.782896041870D-01-9.313225746155D-10 0.000000000000D+00
R21 2016 01 05 00 15 00 4.537589848042D-05 1.818989403546D-12 1.728000000000D+05
     2.155862646484D+04 5.448722839355D-01 9.313225746155D-10 0.000000000000D+00
    -1.270160888672D+04-4.624366760254D-01-1.862645149231D-09 4.000000000000D+00
    -5.034600585938D+03 3.494705200195D+00 1.862645149231D-09 0.000000000000D+00
